[{"OBJECT_NAME":"ONEWEB-0593","OBJECT_ID":"2022-166T","EPOCH":"2025-08-02T08:25:05.276928","MEAN_MOTION":13.21825984,"ECCENTRICITY":0.0002103,"INCLINATION":87.9268,"RA_OF_ASC_NODE":307.5941,"ARG_OF_PERICENTER":104.4005,"MEAN_ANOMALY":255.7362,"EPHEMERIS_TYPE":0,"CLASSIFICATION_TYPE":"U","NORAD_CAT_ID":54659,"ELEMENT_SET_NO":999,"REV_AT_EPOCH":12942,"BSTAR":-0.00011692,"MEAN_MOTION_DOT":-3.5e-7,"MEAN_MOTION_DDOT":0},{"OBJECT_NAME":"ONEWEB-0594","OBJECT_ID":"2022-166U","EPOCH":"2025-08-02T12:30:20.544768","MEAN_MOTION":13.21825891,"ECCENTRICITY":0.0002047,"INCLINATION":87.9272,"RA_OF_ASC_NODE":307.5753,"ARG_OF_PERICENTER":97.8432,"MEAN_ANOMALY":262.2935,"EPHEMERIS_TYPE":0,"CLASSIFICATION_TYPE":"U","NORAD_CAT_ID":54660,"ELEMENT_SET_NO":999,"REV_AT_EPOCH":12946,"BSTAR":0.00023958,"MEAN_MOTION_DOT":1.12e-6,"MEAN_MOTION_DDOT":0},{"OBJECT_NAME":"ONEWEB-0595","OBJECT_ID":"2022-166V","EPOCH":"2025-08-02T08:20:32.355744","MEAN_MOTION":13.21826052,"ECCENTRICITY":0.0001844,"INCLINATION":87.9269,"RA_OF_ASC_NODE":307.5861,"ARG_OF_PERICENTER":95.5627,"MEAN_ANOMALY":264.5717,"EPHEMERIS_TYPE":0,"CLASSIFICATION_TYPE":"U","NORAD_CAT_ID":54661,"ELEMENT_SET_NO":999,"REV_AT_EPOCH":12941,"BSTAR":-0.00027477,"MEAN_MOTION_DOT":-1.0e-6,"MEAN_MOTION_DDOT":0},{"OBJECT_NAME":"ONEWEB-0596","OBJECT_ID":"2022-166W","EPOCH":"2025-08-02T07:41:55.993344","MEAN_MOTION":13.2182609,"ECCENTRICITY":0.0001915,"INCLINATION":87.9273,"RA_OF_ASC_NODE":307.6063,"ARG_OF_PERICENTER":100.4194,"MEAN_ANOMALY":259.7156,"EPHEMERIS_TYPE":0,"CLASSIFICATION_TYPE":"U","NORAD_CAT_ID":54662,"ELEMENT_SET_NO":999,"REV_AT_EPOCH":12941,"BSTAR":-0.00016484,"MEAN_MOTION_DOT":-5.5e-7,"MEAN_MOTION_DDOT":0},{"OBJECT_NAME":"ONEWEB-0597","OBJECT_ID":"2022-166X","EPOCH":"2025-08-02T14:30:42.649920","MEAN_MOTION":13.21825849,"ECCENTRICITY":0.0002083,"INCLINATION":87.9272,"RA_OF_ASC_NODE":307.553,"ARG_OF_PERICENTER":103.5671,"MEAN_ANOMALY":256.5695,"EPHEMERIS_TYPE":0,"CLASSIFICATION_TYPE":"U","NORAD_CAT_ID":54663,"ELEMENT_SET_NO":999,"REV_AT_EPOCH":12945,"BSTAR":0.00011602,"MEAN_MOTION_DOT":6.1e-7,"MEAN_MOTION_DDOT":0},{"OBJECT_NAME":"ONEWEB-0600","OBJECT_ID":"2022-166Y","EPOCH":"2025-08-02T06:49:42.873600","MEAN_MOTION":13.21826163,"ECCENTRICITY":0.0002172,"INCLINATION":87.9264,"RA_OF_ASC_NODE":307.6128,"ARG_OF_PERICENTER":100.6694,"MEAN_ANOMALY":259.4684,"EPHEMERIS_TYPE":0,"CLASSIFICATION_TYPE":"U","NORAD_CAT_ID":54664,"ELEMENT_SET_NO":999,"REV_AT_EPOCH":12938,"BSTAR":7.0071e-5,"MEAN_MOTION_DOT":4.2e-7,"MEAN_MOTION_DDOT":0},{"OBJECT_NAME":"ONEWEB-0601","OBJECT_ID":"2022-166Z","EPOCH":"2025-08-02T06:38:20.675616","MEAN_MOTION":13.21827067,"ECCENTRICITY":0.0002159,"INCLINATION":87.927,"RA_OF_ASC_NODE":307.6293,"ARG_OF_PERICENTER":108.8889,"MEAN_ANOMALY":251.2479,"EPHEMERIS_TYPE":0,"CLASSIFICATION_TYPE":"U","NORAD_CAT_ID":54665,"ELEMENT_SET_NO":999,"REV_AT_EPOCH":12957,"BSTAR":2.7924e-5,"MEAN_MOTION_DOT":2.5e-7,"MEAN_MOTION_DDOT":0},{"OBJECT_NAME":"ONEWEB-0602","OBJECT_ID":"2022-166AA","EPOCH":"2025-08-02T07:37:23.111040","MEAN_MOTION":13.21826613,"ECCENTRICITY":0.0002243,"INCLINATION":87.9275,"RA_OF_ASC_NODE":307.6218,"ARG_OF_PERICENTER":102.2586,"MEAN_ANOMALY":257.8799,"EPHEMERIS_TYPE":0,"CLASSIFICATION_TYPE":"U","NORAD_CAT_ID":54666,"ELEMENT_SET_NO":999,"REV_AT_EPOCH":12942,"BSTAR":-0.00020117,"MEAN_MOTION_DOT":-7.0e-7,"MEAN_MOTION_DDOT":0},{"OBJECT_NAME":"ONEWEB-0603","OBJECT_ID":"2022-166AB","EPOCH":"2025-08-02T07:44:12.248736","MEAN_MOTION":13.21827702,"ECCENTRICITY":0.0002179,"INCLINATION":87.9267,"RA_OF_ASC_NODE":307.5575,"ARG_OF_PERICENTER":105.3423,"MEAN_ANOMALY":254.7952,"EPHEMERIS_TYPE":0,"CLASSIFICATION_TYPE":"U","NORAD_CAT_ID":54667,"ELEMENT_SET_NO":999,"REV_AT_EPOCH":12935,"BSTAR":-0.00013051,"MEAN_MOTION_DOT":-4.1e-7,"MEAN_MOTION_DDOT":0},{"OBJECT_NAME":"ONEWEB-0604","OBJECT_ID":"2022-166AC","EPOCH":"2025-08-02T07:26:03.318432","MEAN_MOTION":13.21825016,"ECCENTRICITY":0.0002192,"INCLINATION":87.9271,"RA_OF_ASC_NODE":307.5819,"ARG_OF_PERICENTER":103.7044,"MEAN_ANOMALY":256.4335,"EPHEMERIS_TYPE":0,"CLASSIFICATION_TYPE":"U","NORAD_CAT_ID":54668,"ELEMENT_SET_NO":999,"REV_AT_EPOCH":12931,"BSTAR":0.00060623,"MEAN_MOTION_DOT":2.63e-6,"MEAN_MOTION_DDOT":0},{"OBJECT_NAME":"ONEWEB-0605","OBJECT_ID":"2022-166AD","EPOCH":"2025-08-02T12:43:57.830016","MEAN_MOTION":13.21826314,"ECCENTRICITY":0.0002048,"INCLINATION":87.9272,"RA_OF_ASC_NODE":307.5691,"ARG_OF_PERICENTER":119.0175,"MEAN_ANOMALY":241.1164,"EPHEMERIS_TYPE":0,"CLASSIFICATION_TYPE":"U","NORAD_CAT_ID":54669,"ELEMENT_SET_NO":999,"REV_AT_EPOCH":12941,"BSTAR":4.7276e-5,"MEAN_MOTION_DOT":3.3e-7,"MEAN_MOTION_DDOT":0},{"OBJECT_NAME":"ONEWEB-0606","OBJECT_ID":"2022-166AE","EPOCH":"2025-08-02T07:48:45.626112","MEAN_MOTION":13.21825432,"ECCENTRICITY":0.000174,"INCLINATION":87.9269,"RA_OF_ASC_NODE":307.6209,"ARG_OF_PERICENTER":97.4376,"MEAN_ANOMALY":262.6956,"EPHEMERIS_TYPE":0,"CLASSIFICATION_TYPE":"U","NORAD_CAT_ID":54670,"ELEMENT_SET_NO":999,"REV_AT_EPOCH":12944,"BSTAR":0.00014731,"MEAN_MOTION_DOT":7.4e-7,"MEAN_MOTION_DDOT":0},{"OBJECT_NAME":"ONEWEB-0607","OBJECT_ID":"2022-166AF","EPOCH":"2025-08-02T07:01:04.851264","MEAN_MOTION":13.2182442,"ECCENTRICITY":0.0002097,"INCLINATION":87.9269,"RA_OF_ASC_NODE":307.5918,"ARG_OF_PERICENTER":103.2081,"MEAN_ANOMALY":256.9287,"EPHEMERIS_TYPE":0,"CLASSIFICATION_TYPE":"U","NORAD_CAT_ID":54671,"ELEMENT_SET_NO":999,"REV_AT_EPOCH":12941,"BSTAR":2.6427e-5,"MEAN_MOTION_DOT":2.4e-7,"MEAN_MOTION_DDOT":0},{"OBJECT_NAME":"ONEWEB-0608","OBJECT_ID":"2022-166AG","EPOCH":"2025-08-02T12:37:08.421888","MEAN_MOTION":13.21828067,"ECCENTRICITY":0.0002286,"INCLINATION":87.9262,"RA_OF_ASC_NODE":307.5318,"ARG_OF_PERICENTER":112.0493,"MEAN_ANOMALY":248.0884,"EPHEMERIS_TYPE":0,"CLASSIFICATION_TYPE":"U","NORAD_CAT_ID":54672,"ELEMENT_SET_NO":999,"REV_AT_EPOCH":12945,"BSTAR":0.00015382,"MEAN_MOTION_DOT":7.7e-7,"MEAN_MOTION_DDOT":0},{"OBJECT_NAME":"ONEWEB-0610","OBJECT_ID":"2022-166AH","EPOCH":"2025-08-02T17:36:52.626816","MEAN_MOTION":13.21831862,"ECCENTRICITY":0.000233,"INCLINATION":87.927,"RA_OF_ASC_NODE":307.5242,"ARG_OF_PERICENTER":113.2095,"MEAN_ANOMALY":246.9284,"EPHEMERIS_TYPE":0,"CLASSIFICATION_TYPE":"U","NORAD_CAT_ID":54673,"ELEMENT_SET_NO":999,"REV_AT_EPOCH":12985,"BSTAR":6.6671e-5,"MEAN_MOTION_DOT":4.1e-7,"MEAN_MOTION_DDOT":0},{"OBJECT_NAME":"ONEWEB-0611","OBJECT_ID":"2022-166AJ","EPOCH":"2025-08-02T13:49:48.933120","MEAN_MOTION":13.2182659,"ECCENTRICITY":0.0001989,"INCLINATION":87.9268,"RA_OF_ASC_NODE":307.5523,"ARG_OF_PERICENTER":92.7971,"MEAN_ANOMALY":267.339,"EPHEMERIS_TYPE":0,"CLASSIFICATION_TYPE":"U","NORAD_CAT_ID":54674,"ELEMENT_SET_NO":999,"REV_AT_EPOCH":12982,"BSTAR":0.00011411,"MEAN_MOTION_DOT":6.0e-7,"MEAN_MOTION_DDOT":0},{"OBJECT_NAME":"ONEWEB-0612","OBJECT_ID":"2022-166AK","EPOCH":"2025-08-02T06:51:58.953600","MEAN_MOTION":13.21825606,"ECCENTRICITY":0.0002112,"INCLINATION":87.927,"RA_OF_ASC_NODE":307.5875,"ARG_OF_PERICENTER":105.0856,"MEAN_ANOMALY":255.0512,"EPHEMERIS_TYPE":0,"CLASSIFICATION_TYPE":"U","NORAD_CAT_ID":54675,"ELEMENT_SET_NO":999,"REV_AT_EPOCH":12930,"BSTAR":9.0047e-5,"MEAN_MOTION_DOT":5.0e-7,"MEAN_MOTION_DDOT":0}]
