ONEWEB-0593             
1 54659U 22166T   25214.35075552 -.00000035  00000+0 -11692-3 0  9993
2 54659  87.9268 307.5941 0002103 104.4005 255.7362 13.21825984129421
ONEWEB-0594             
1 54660U 22166U   25214.52107112  .00000112  00000+0  23958-3 0  9994
2 54660  87.9272 307.5753 0002047  97.8432 262.2935 13.21825891129465
ONEWEB-0595             
1 54661U 22166V   25214.34759671 -.00000100  00000+0 -27477-3 0  9997
2 54661  87.9269 307.5861 0001844  95.5627 264.5717 13.21826052129415
ONEWEB-0596             
1 54662U 22166W   25214.32078696 -.00000055  00000+0 -16484-3 0  9992
2 54662  87.9273 307.6063 0001915 100.4194 259.7156 13.21826090129415
ONEWEB-0597             
1 54663U 22166X   25214.60466030  .00000061  00000+0  11602-3 0  9999
2 54663  87.9272 307.5530 0002083 103.5671 256.5695 13.21825849129452
ONEWEB-0600             
1 54664U 22166Y   25214.28452400  .00000042  00000+0  70071-4 0  9995
2 54664  87.9264 307.6128 0002172 100.6694 259.4684 13.21826163129382
ONEWEB-0601             
1 54665U 22166Z   25214.27662819  .00000025  00000+0  27924-4 0  9992
2 54665  87.9270 307.6293 0002159 108.8889 251.2479 13.21827067129571
ONEWEB-0602             
1 54666U 22166AA  25214.31762860 -.00000070  00000+0 -20117-3 0  9993
2 54666  87.9275 307.6218 0002243 102.2586 257.8799 13.21826613129427
ONEWEB-0603             
1 54667U 22166AB  25214.32236399 -.00000041  00000+0 -13051-3 0  9995
2 54667  87.9267 307.5575 0002179 105.3423 254.7952 13.21827702129355
ONEWEB-0604             
1 54668U 22166AC  25214.30976063  .00000263  00000+0  60623-3 0  9994
2 54668  87.9271 307.5819 0002192 103.7044 256.4335 13.21825016129314
ONEWEB-0605             
1 54669U 22166AD  25214.53053044  .00000033  00000+0  47276-4 0  9990
2 54669  87.9272 307.5691 0002048 119.0175 241.1164 13.21826314129413
ONEWEB-0606             
1 54670U 22166AE  25214.32552808  .00000074  00000+0  14731-3 0  9995
2 54670  87.9269 307.6209 0001740  97.4376 262.6956 13.21825432129447
ONEWEB-0607             
1 54671U 22166AF  25214.29241726  .00000024  00000+0  26427-4 0  9997
2 54671  87.9269 307.5918 0002097 103.2081 256.9287 13.21824420129415
ONEWEB-0608             
1 54672U 22166AG  25214.52579192  .00000077  00000+0  15382-3 0  9990
2 54672  87.9262 307.5318 0002286 112.0493 248.0884 13.21828067129458
ONEWEB-0610             
1 54673U 22166AH  25214.73394244  .00000041  00000+0  66671-4 0  9996
2 54673  87.9270 307.5242 0002330 113.2095 246.9284 13.21831862129857
ONEWEB-0611             
1 54674U 22166AJ  25214.57626080  .00000060  00000+0  11411-3 0  9997
2 54674  87.9268 307.5523 0001989  92.7971 267.3390 13.21826590129824
ONEWEB-0612             
1 54675U 22166AK  25214.28609900  .00000050  00000+0  90047-4 0  9990
2 54675  87.9270 307.5875 0002112 105.0856 255.0512 13.21825606129307
